STARLINK-5484           
1 55628U 23021A   26068.80681188  .00002425  00000+0  21095-3 0  9998
2 55628  70.0004 204.2441 0003305 268.9762  91.1018 14.98329840168314
LEMUR-2-DELOITTE-1      
1 63259U 25052BB  26068.93956839  .00005004  00000+0  44206-3 0  9990
2 63259  97.7035 323.2090 0003011  78.3841 281.7719 14.96797120 53844
